[{"OBJECT_NAME":"PTD-R (TYVAK-0127)","OBJECT_ID":"2024-149BH","EPOCH":"2026-03-09T19:31:31.459584","MEAN_MOTION":15.69700541,"ECCENTRICITY":0.00042667,"INCLINATION":97.3759,"RA_OF_ASC_NODE":162.0693,"ARG_OF_PERICENTER":248.5856,"MEAN_ANOMALY":111.4951,"EPHEMERIS_TYPE":0,"CLASSIFICATION_TYPE":"U","NORAD_CAT_ID":60523,"ELEMENT_SET_NO":999,"REV_AT_EPOCH":8769,"BSTAR":0.0012020526,"MEAN_MOTION_DOT":0.00144621,"MEAN_MOTION_DDOT":0},{"OBJECT_NAME":"STARLINK-11245 [DTC]","OBJECT_ID":"2024-155B","EPOCH":"2026-03-09T23:15:06.888672","MEAN_MOTION":15.69695376,"ECCENTRICITY":7.625e-5,"INCLINATION":53.1589,"RA_OF_ASC_NODE":340.0673,"ARG_OF_PERICENTER":54.5025,"MEAN_ANOMALY":305.6064,"EPHEMERIS_TYPE":0,"CLASSIFICATION_TYPE":"U","NORAD_CAT_ID":60925,"ELEMENT_SET_NO":999,"REV_AT_EPOCH":8844,"BSTAR":1.3905638e-5,"MEAN_MOTION_DOT":1.096e-5,"MEAN_MOTION_DDOT":0}]
